ONEWEB-0522             
1 54140U 22138AD  26177.61958582  .00000077  00000+0  15974-3 0  9999
2 54140  87.9185 303.0787 0001755 102.5933 257.5396 13.19725420178055
ONEWEB-0523             
1 54141U 22138AE  26177.49892181 -.00000013  00000+0 -63167-4 0  9998
2 54141  87.9198 272.5854 0002720  90.2469 269.8976 13.20772069180534
ONEWEB-0524             
1 54142U 22138AF  26177.56458116  .00000049  00000+0  89692-4 0  9991
2 54142  87.9196 272.5689 0002850 108.3332 251.8111 13.20771567180548
ONEWEB-0525             
1 54143U 22138AG  26177.63852644  .00000024  00000+0  28001-4 0  9994
2 54143  87.9186 303.0823 0001749 111.5710 248.5609 13.19726347178074
ONEWEB-0526             
1 54144U 22138AH  26177.59587759  .00000058  00000+0  11227-3 0  9990
2 54144  87.9190 303.0920 0001891 104.0893 256.0450 13.19726931178049
ONEWEB-0529             
1 54145U 22138AJ  26177.59904919  .00000130  00000+0  29224-3 0  9999
2 54145  87.9181 303.0996 0001788 106.3502 253.7827 13.19725054178069
ONEWEB-0531             
1 54146U 22138AK  26177.55111436  .00000060  00000+0  11654-3 0  9990
2 54146  87.9195 272.5691 0002860  95.6653 264.4807 13.20773164180546
ONEWEB-0535             
1 54147U 22138AL  26177.63220971  .00000039  00000+0  65891-4 0  9994
2 54147  87.9186 303.0775 0002119  92.8125 267.3250 13.19726110178087
ONEWEB-0536             
1 54148U 22138AM  26177.53764301  .00000063  00000+0  12400-3 0  9998
2 54148  87.9185 272.5932 0003044  98.1535 261.9944 13.20771864180535
ONEWEB-0527             
1 54642U 22166A   26177.41160361  .00000081  00000+0  16580-3 0  9994
2 54642  87.9248 242.1621 0002052  99.9402 260.1964 13.21824258172757
ONEWEB-0528             
1 54643U 22166B   26177.41243680  .00000168  00000+0  37416-3 0  9998
2 54643  87.9249 242.1643 0001991 104.2145 255.9210 13.21826379172761
ONEWEB-0539             
1 54644U 22166C   26177.22319524  .00000045  00000+0  78631-4 0  9998
2 54644  87.9258 242.1739 0001894  92.1113 268.0238 13.21827238172737
ONEWEB-0540             
1 54645U 22166D   26177.45714528  .00000106  00000+0  22405-3 0  9992
2 54645  87.9247 242.1571 0002004  94.8446 265.2917 13.21827583172750
ONEWEB-0542             
1 54646U 22166E   26177.61177492  .00000002  00000+0 -25588-4 0  9996
2 54646  87.9257 242.0955 0001891  90.6764 269.4586 13.21824514172789
ONEWEB-0545             
1 54647U 22166F   26177.57644591  .00000074  00000+0  14823-3 0  9998
2 54647  87.9249 242.1138 0001901  82.4236 277.7114 13.21828124172746
ONEWEB-0580             
1 54648U 22166G   26177.47549470  .00000017  00000+0  86752-5 0  9997
2 54648  87.9248 242.1334 0002099  86.4746 273.6628 13.21828237172776
ONEWEB-0582             
1 54649U 22166H   26177.59326850  .00000073  00000+0  14555-3 0  9998
2 54649  87.9248 242.1027 0001948  85.3692 274.7664 13.21827348172769
ONEWEB-0583             
1 54650U 22166J   26177.45365424  .00000031  00000+0  44403-4 0  9995
2 54650  87.9243 242.1535 0002004  94.5877 265.5486 13.21825162172752
ONEWEB-0584             
1 54651U 22166K   26177.47383687  .00000157  00000+0  34742-3 0  9992
2 54651  87.9244 242.1347 0002074  95.2911 264.8460 13.21827070172742
ONEWEB-0585             
1 54652U 22166L   26177.57308578  .00000050  00000+0  90255-4 0  9994
2 54652  87.9251 242.1028 0002078 102.5549 257.5818 13.21826943172766
ONEWEB-0586             
1 54653U 22166M   26177.58654600  .00000095  00000+0  19796-3 0  9995
2 54653  87.9246 242.1254 0001944  94.2461 265.8895 13.21824453172764
ONEWEB-0587             
1 54654U 22166N   26177.59663910  .00000106  00000+0  22434-3 0  9997
2 54654  87.9260 242.0980 0002216 106.9700 253.1677 13.21824597172921
ONEWEB-0589             
1 54655U 22166P   26177.58318219  .00000036  00000+0  54708-4 0  9998
2 54655  87.9245 242.1117 0002096  74.1026 286.0339 13.21824663172789
ONEWEB-0590             
1 54656U 22166Q   26177.60826318  .00000053  00000+0  97751-4 0  9990
2 54656  87.9255 242.0975 0002494  94.3098 265.8321 13.21827903172772
ONEWEB-0591             
1 54657U 22166R   26177.46879600  .00000032  00000+0  44882-4 0  9991
2 54657  87.9248 242.1393 0002112  96.6375 263.5000 13.21827284172782
ONEWEB-0592             
1 54658U 22166S   26177.47213743  .00000105  00000+0  22327-3 0  9993
2 54658  87.9256 242.1175 0002062  97.6320 262.5048 13.21828850172663
ONEWEB-0593             
1 54659U 22166T   26177.56971890  .00000005  00000+0 -19608-4 0  9997
2 54659  87.9248 242.1093 0001905  95.9334 264.2017 13.21824698172789
ONEWEB-0594             
1 54660U 22166U   26177.43850498  .00000052  00000+0  95314-4 0  9994
2 54660  87.9245 242.1515 0001988 102.5822 257.5535 13.21828204172782
ONEWEB-0595             
1 54661U 22166V   26177.41496078  .00000072  00000+0  14258-3 0  9992
2 54661  87.9258 242.1377 0002217 102.9985 257.1397 13.21825073172753
ONEWEB-0596             
1 54662U 22166W   26177.61681693 -.00000066  00000+0 -19025-3 0  9996
2 54662  87.9249 242.1082 0002130 100.0377 260.0998 13.21827586172789
