OBJECT_NAME,OBJECT_ID,EPOCH,MEAN_MOTION,ECCENTRICITY,INCLINATION,RA_OF_ASC_NODE,ARG_OF_PERICENTER,MEAN_ANOMALY,EPHEMERIS_TYPE,CLASSIFICATION_TYPE,NORAD_CAT_ID,ELEMENT_SET_NO,REV_AT_EPOCH,BSTAR,MEAN_MOTION_DOT,MEAN_MOTION_DDOT
ONEWEB-0522,2022-138AD,2026-06-26T14:52:12.214848,13.19725420,.00017556,87.9185,303.0787,102.5933,257.5396,0,U,54140,999,17805,.1597431E-3,.77E-6,0
ONEWEB-0523,2022-138AE,2026-06-26T11:58:26.844384,13.20772069,.00027202,87.9198,272.5854,90.2469,269.8976,0,U,54141,999,18053,-.63166614E-4,-.13E-6,0
ONEWEB-0524,2022-138AF,2026-06-26T13:32:59.812224,13.20771567,.00028503,87.9196,272.5689,108.3332,251.8111,0,U,54142,999,18054,.89692313E-4,.49E-6,0
ONEWEB-0525,2022-138AG,2026-06-26T15:19:28.684416,13.19726347,.0001749,87.9186,303.0823,111.5710,248.5609,0,U,54143,999,17807,.28000741E-4,.24E-6,0
ONEWEB-0526,2022-138AH,2026-06-26T14:18:03.823776,13.19726931,.00018917,87.9190,303.0920,104.0893,256.0450,0,U,54144,999,17804,.11227208E-3,.58E-6,0
ONEWEB-0529,2022-138AJ,2026-06-26T14:22:37.850016,13.19725054,.00017884,87.9181,303.0996,106.3502,253.7827,0,U,54145,999,17806,.29224138E-3,.13E-5,0
ONEWEB-0531,2022-138AK,2026-06-26T13:13:36.280704,13.20773164,.00028606,87.9195,272.5691,95.6653,264.4807,0,U,54146,999,18054,.1165425E-3,.6E-6,0
ONEWEB-0535,2022-138AL,2026-06-26T15:10:22.918944,13.19726110,.00021196,87.9186,303.0775,92.8125,267.3250,0,U,54147,999,17808,.65890592E-4,.39E-6,0
ONEWEB-0536,2022-138AM,2026-06-26T12:54:12.356064,13.20771864,.00030445,87.9185,272.5932,98.1535,261.9944,0,U,54148,999,18053,.12399513E-3,.63E-6,0
ONEWEB-0527,2022-166A,2026-06-26T09:52:42.551904,13.21824258,.00020524,87.9248,242.1621,99.9402,260.1964,0,U,54642,999,17275,.1657953E-3,.81E-6,0
ONEWEB-0528,2022-166B,2026-06-26T09:53:54.539520,13.21826379,.00019913,87.9249,242.1643,104.2145,255.9210,0,U,54643,999,17276,.37416127E-3,.168E-5,0
ONEWEB-0539,2022-166C,2026-06-26T05:21:24.068736,13.21827238,.00018948,87.9258,242.1739,92.1113,268.0238,0,U,54644,999,17273,.78630575E-4,.45E-6,0
ONEWEB-0540,2022-166D,2026-06-26T10:58:17.352192,13.21827583,.00020047,87.9247,242.1571,94.8446,265.2917,0,U,54645,999,17275,.22405138E-3,.106E-5,0
ONEWEB-0542,2022-166E,2026-06-26T14:40:57.353088,13.21824514,.00018912,87.9257,242.0955,90.6764,269.4586,0,U,54646,999,17278,-.25587897E-4,.2E-7,0
ONEWEB-0545,2022-166F,2026-06-26T13:50:04.926624,13.21828124,.0001901,87.9249,242.1138,82.4236,277.7114,0,U,54647,999,17274,.14822811E-3,.74E-6,0
ONEWEB-0580,2022-166G,2026-06-26T11:24:42.742080,13.21828237,.00020998,87.9248,242.1334,86.4746,273.6628,0,U,54648,999,17277,.8675206E-5,.17E-6,0
ONEWEB-0582,2022-166H,2026-06-26T14:14:18.398400,13.21827348,.00019484,87.9248,242.1027,85.3692,274.7664,0,U,54649,999,17276,.14554905E-3,.73E-6,0
ONEWEB-0583,2022-166J,2026-06-26T10:53:15.726336,13.21825162,.00020046,87.9243,242.1535,94.5877,265.5486,0,U,54650,999,17275,.44402917E-4,.31E-6,0
ONEWEB-0584,2022-166K,2026-06-26T11:22:19.505568,13.21827070,.00020741,87.9244,242.1347,95.2911,264.8460,0,U,54651,999,17274,.34741921E-3,.157E-5,0
ONEWEB-0585,2022-166L,2026-06-26T13:45:14.611392,13.21826943,.00020784,87.9251,242.1028,102.5549,257.5818,0,U,54652,999,17276,.90254966E-4,.5E-6,0
ONEWEB-0586,2022-166M,2026-06-26T14:04:37.574400,13.21824453,.00019443,87.9246,242.1254,94.2461,265.8895,0,U,54653,999,17276,.19796407E-3,.95E-6,0
ONEWEB-0587,2022-166N,2026-06-26T14:19:09.618240,13.21824597,.00022162,87.9260,242.0980,106.9700,253.1677,0,U,54654,999,17292,.22434096E-3,.106E-5,0
ONEWEB-0589,2022-166P,2026-06-26T13:59:46.941216,13.21824663,.00020966,87.9245,242.1117,74.1026,286.0339,0,U,54655,999,17278,.54707684E-4,.36E-6,0
ONEWEB-0590,2022-166Q,2026-06-26T14:35:53.938752,13.21827903,.00024943,87.9255,242.0975,94.3098,265.8321,0,U,54656,999,17277,.97751069E-4,.53E-6,0
ONEWEB-0591,2022-166R,2026-06-26T11:15:03.974400,13.21827284,.00021124,87.9248,242.1393,96.6375,263.5000,0,U,54657,999,17278,.44881889E-4,.32E-6,0
ONEWEB-0592,2022-166S,2026-06-26T11:19:52.673952,13.21828850,.00020628,87.9256,242.1175,97.6320,262.5048,0,U,54658,999,17266,.22327183E-3,.105E-5,0
ONEWEB-0593,2022-166T,2026-06-26T13:40:23.712960,13.21824698,.0001905,87.9248,242.1093,95.9334,264.2017,0,U,54659,999,17278,-.1960774E-4,.5E-7,0
ONEWEB-0594,2022-166U,2026-06-26T10:31:26.830272,13.21828204,.00019889,87.9245,242.1515,102.5822,257.5535,0,U,54660,999,17278,.95314235E-4,.52E-6,0
ONEWEB-0595,2022-166V,2026-06-26T09:57:32.611392,13.21825073,.00022175,87.9258,242.1377,102.9985,257.1397,0,U,54661,999,17275,.14257943E-3,.72E-6,0
ONEWEB-0596,2022-166W,2026-06-26T14:48:12.982752,13.21827586,.00021306,87.9249,242.1082,100.0377,260.0998,0,U,54662,999,17278,-.19025475E-3,-.66E-6,0
